#cP2022 10  2  0  0  0.00000000      96 ORBIT IGb14 HLM  IGS
## 2230      0.00000000   900.00000000 59854 0.0000000000000
+   32   G01G02G03G04G05G06G07G08G09G10G11G12G13G14G15G16G17
+        G18G19G20G21G22G23G24G25G26G27G28G29G30G31G32  0  0
+          0  0  0  0  0  0  0  0  0  0  0  0  0  0  0  0  0
+          0  0  0  0  0  0  0  0  0  0  0  0  0  0  0  0  0
+          0  0  0  0  0  0  0  0  0  0  0  0  0  0  0  0  0
++         2  2  2  2  2  2  2  2  2  2  3  2  2  2  2  2  2
++         3  2  2  2  2  2  2  2  2  2  3  2  3  2  2  0  0
++         0  0  0  0  0  0  0  0  0  0  0  0  0  0  0  0  0
++         0  0  0  0  0  0  0  0  0  0  0  0  0  0  0  0  0
++         0  0  0  0  0  0  0  0  0  0  0  0  0  0  0  0  0
%c G  cc GPS ccc cccc cccc cccc cccc ccccc ccccc ccccc ccccc
%c cc cc ccc ccc cccc cccc cccc cccc ccccc ccccc ccccc ccccc
%f  1.2500000  1.025000000  0.00000000000  0.000000000000000
%f  0.0000000  0.000000000  0.00000000000  0.000000000000000
%i    0    0    0    0      0      0      0      0         0
%i    0    0    0    0      0      0      0      0         0
/* RAPID ORBIT COMBINATION FROM WEIGHTED AVERAGE OF:        
/* cod emr esa gfz jpl ngs sio usn whu                      
/* REFERENCED TO IGS TIME (IGST) AND TO WEIGHTED MEAN POLE: 
/* PCV:IGS14_2223 OL/AL:FES2004  NONE     Y  ORB:CMB CLK:CMB
*  2022 10  2 14 15  0.00000000
PG01  -1318.084434  15684.596736 -21642.706519    274.082716  6  5  5 117       
PG02   6128.363949 -17844.782008  19416.445469   -643.942677  6  3  4 104       
PG03   6325.707156  19700.198452 -16837.414614   -359.544937  6  5  5  94       
PG04   -388.553139  25742.984330   6317.471999   -109.900378  8  7  5 100       
PG05   4983.047989 -14761.798382  21318.347703    -98.871033  5  5  3  96       
PG06  25377.993560  -6266.046989  -4856.518323    479.287108  6  3  4  89       
PG07  15159.393804   9581.712828  20156.955719    302.536710  3  3  6 106       
PG08  -5936.238190  25408.189887   3737.664773    -87.105873  5  5  4  72       
PG09   8540.471116  19628.193804  15620.996480   -288.587939  4  3  6  82       
PG10 -22824.632258  -9921.017724  -9557.581877     -5.785208  5  9 10 110       
PG11  22722.279890 -12142.858057   6379.371509    -21.597153 13 12  7  95       
PG12  -4483.388477 -20146.572281 -17041.810334   -287.553314  7  5  5 122       
PG13  13112.587069 -20770.064392   9694.214628    398.551736  7  6  3 102       
PG14  22464.137378  11762.996041  -8081.870348    -98.875416  4  5  5  96       
PG15   2781.513556 -26022.057580   3031.821524    -24.227687  6  7  6  89       
PG16 -12267.483954   8844.563736  21587.164398   -525.524178  5  6  4 119       
PG17  13577.600261   6036.945997 -21571.595757    664.869103  6  3  6  88       
PG18 -15910.166706  -8374.475180  19591.388341     28.651492  7  7  8  93       
PG19  15922.541436  -5182.740855 -20793.010558    218.460573  6  3  4 110       
PG20  17321.220389  -6090.631583  19120.304145    481.645816  6  6  3  66       
PG21 -10080.353782  17516.628127 -16220.107042    158.633589  7  7  6 104       
PG22 -15750.943946   8726.974932 -19046.235426    338.376152  6  5  6  80       
PG23 -21093.854595 -16253.484657    355.482578     -0.686872  8  7  5  97       
PG24   4550.643546 -17984.961060 -19180.980294    114.787633  8  6  4  83       
PG25 -15595.240760 -20019.390715  -8589.061004    378.205490  5  3  7  95       
PG26 -19741.002662   2011.046716  17714.304845    230.913880  5  5  4 108       
PG27 -12466.555291  18443.722934  13962.651011    204.173031  6  5  3  94       
PG28  20520.403832   5014.336386 -15442.300953    333.511789  8  6  7 102       
PG29  -5687.552316 -20884.962429  15291.296492   -556.437716  5  3  6 116       
PG30  23313.528392   1481.006093  12963.266200   -537.211898  9  6  7 100       
PG31 -25759.546592   6419.115985  -3893.674488   -195.410903  5  4  6 132       
PG32 -14996.126806  -2436.188364 -21637.827192   -250.946741  7  5  6  99       
*  2022 10  2 14 30  0.00000000
PG01  -3525.532963  16520.711525 -20711.768965    274.077136  6  4  5 103       
PG02   7954.740899 -18684.771906  17864.336545   -643.941143  7  4  4  94       
PG03   4657.781193  18598.305824 -18550.701750   -359.549325  7  5  5  90       
PG04   -725.696143  26261.931066   3528.232093   -109.895101  8  8  6  87       
PG05   7063.539144 -13380.818900  21647.855233    -98.872220  6  6  3 110       
PG06  24778.926728  -5835.310846  -7643.369001    479.297541  6  4  4 102       
PG07  13096.497268  10525.615696  21086.094492    302.533482  3  3  6 110       
PG08  -6150.270123  24786.291298   6534.920829    -87.108022  5  5  4  62       
PG09   8169.059568  21281.765175  13520.269466   -288.583407  5  3  7  89       
PG10 -23479.807198 -10633.667005  -6900.857442     -5.786013  5  9 10  96       
PG11  23341.520717 -12111.554162   3590.855455    -21.600524 13 13  8 105       
PG12  -2895.280150 -18936.467756 -18708.365902   -287.557316  7  5  5 121       
PG13  12998.252796 -19477.179466  12186.605003    398.558349  7  7  3  76       
PG14  22899.782698  12450.444760  -5393.554901    -98.872353  5  5  5  92       
PG15   3149.102140 -25467.082261   5782.255938    -24.224690  7  7  6 102       
PG16 -14107.937180   7158.193686  21129.170805   -525.524691  5  6  4 123       
PG17  13075.858737   8516.172679 -21043.965882    664.872503  6  3  7  96       
PG18 -13808.276505  -9313.103584  20716.655267     28.639715  8  6  8  90       
PG19  15452.875177  -2851.242921 -21613.383235    218.465103  6  3  4 110       
PG20  19118.356844  -4963.736533  17657.180301    481.642831  6  7  3  67       
PG21 -11842.081811  18179.051281 -14185.151270    158.632903  7  7  6 114       
PG22 -15397.259897   6417.170424 -20209.140851    338.382348  6  6  6  67       
PG23 -20801.143937 -16313.880152   3212.662901     -0.687192  7  7  5  86       
PG24   6469.756044 -18794.660295 -17738.741981    114.775161  7  6  5 108       
PG25 -14594.460150 -19552.393457 -11111.676113    378.209052  5  3  7 108       
PG26 -21259.269288    788.574027  16007.934334    230.915198  5  5  4 107       
PG27 -12450.667313  16668.247887  16057.518982    204.168153  5  5  2 107       
PG28  21665.257087   6329.661192 -13294.892673    333.508328  7  6  7 103       
PG29  -5213.488602 -22452.480689  13078.720848   -556.440575  6  3  7 107       
PG30  21932.458819   2295.722258  15073.315188   -537.211951  8  6  7 110       
PG31 -25307.212431   5993.261069  -6627.541366   -195.412435  5  5  6 128       
PG32 -14705.986382  -4915.317395 -21433.587701   -250.957251  7  5  6 100       
*  2022 10  2 14 45  0.00000000
PG01  -5573.900171  17428.269265 -19431.073220    274.071533  6  4  5 113       
PG02   9574.959987 -19526.771160  16021.082658   -643.940083  7  5  3 107       
PG03   2785.630049  17492.881546 -19948.971680   -359.553749  6  5  5  86       
PG04  -1004.998343  26479.125715    677.905337   -109.889813  9  9  6  71       
PG05   9225.499647 -12101.806176  21598.572791    -98.873052  6  7  3 102       
PG06  23928.216681  -5234.061085 -10298.947244    479.307925  6  4  4  98       
PG07  11007.828954  11614.270623  21668.321988    302.530522  2  4  5 107       
PG08  -6383.878595  23863.571888   9217.140077    -87.108642  5  6  4  81       
PG09   7893.045238  22700.398366  11185.368776   -288.578839  5  3  7  83       
PG10 -23917.030080 -11139.558335  -4126.969884     -5.787431  5  9 11  85       
PG11  23668.406387 -11985.364035    740.398356    -21.603893 12 13  8  98       
PG12  -1110.861301 -17711.047005 -20060.706125   -287.561325  7  5  4 112       
PG13  12899.527307 -17912.245075  14465.365230    398.564672  7  7  4  83       
PG14  23118.918404  12935.258450  -2613.007694    -98.869280  6  5  5  75       
PG15   3566.398064 -24621.505597   8430.211725    -24.221918  6  8  6  99       
PG16 -15973.392442   5620.509862  20300.771470   -525.525538  5  6  5 120       
PG17  12717.625235  10935.704256 -20139.071179    664.875685  7  3  7  84       
PG18 -11662.327252 -10410.916170  21486.307554     28.627920  9  6  8  85       
PG19  15100.648688   -429.730303 -22068.558803    218.469878  6  4  4 110       
PG20  20803.205109  -4000.891186  15887.931277    481.640048  5  7  3  59       
PG21 -13351.105857  18797.746974 -11887.632922    158.632324  7  8  5 120       
PG22 -15145.601779   3980.081151 -21009.983797    338.388365  4  6  6  88       
PG23 -20240.170629 -16221.629791   6014.979545     -0.687521  7  7  5  74       
PG24   8199.782549 -19604.165021 -15994.043134    114.762637  7  7  5  96       
PG25 -13344.248358 -18989.843737 -13448.341915    378.212643  5  4  7 112       
PG26 -22654.100690   -252.558054  14028.038684    230.916552  5  6  5 109       
PG27 -12514.870869  14671.230318  17867.185730    204.163271  5  5  3 102       
PG28  22672.160503   7417.152465 -10908.996245    333.504942  7  6  7 113       
PG29  -4861.795213 -23781.431770  10639.577268   -556.443483  6  3  7 109       
PG30  20392.022618   3273.433448  16928.330191   -537.212034  8  6  7 109       
PG31 -24606.883301   5417.321984  -9250.842537   -195.413661  4  6  7 128       
PG32 -14546.284483  -7359.476641 -20856.106914   -250.967813  7  5  5 110       
EOF
